{"type": "FeatureCollection", "features": [{"type": "Feature", "properties": {"name": "ChargeZone \u2014 Kalawad Rd", "category": "EV_CHARGER", "source": "synthetic"}, "geometry": {"type": "Point", "coordinates": [70.7625, 22.29]}}, {"type": "Feature", "properties": {"name": "Tata Power EZ \u2014 Ring Rd W", "category": "EV_CHARGER", "source": "synthetic"}, "geometry": {"type": "Point", "coordinates": [70.738, 22.3005]}}, {"type": "Feature", "properties": {"name": "Statiq \u2014 Old City", "category": "EV_CHARGER", "source": "synthetic"}, "geometry": {"type": "Point", "coordinates": [70.7945, 22.2975]}}, {"type": "Feature", "properties": {"name": "Jio-bp pulse \u2014 Gondal Rd", "category": "EV_CHARGER", "source": "synthetic"}, "geometry": {"type": "Point", "coordinates": [70.808, 22.266]}}, {"type": "Feature", "properties": {"name": "ChargeZone \u2014 Mavdi", "category": "EV_CHARGER", "source": "synthetic"}, "geometry": {"type": "Point", "coordinates": [70.7705, 22.275]}}, {"type": "Feature", "properties": {"name": "EV plugNgo \u2014 University Rd", "category": "EV_CHARGER", "source": "synthetic"}, "geometry": {"type": "Point", "coordinates": [70.7445, 22.2895]}}, {"type": "Feature", "properties": {"name": "Ather Grid \u2014 Sadar", "category": "EV_CHARGER", "source": "synthetic"}, "geometry": {"type": "Point", "coordinates": [70.7985, 22.287]}}, {"type": "Feature", "properties": {"name": "Tata Power EZ \u2014 150ft Ring Rd", "category": "EV_CHARGER", "source": "synthetic"}, "geometry": {"type": "Point", "coordinates": [70.7355, 22.3085]}}, {"type": "Feature", "properties": {"name": "Statiq \u2014 Race Course", "category": "EV_CHARGER", "source": "synthetic"}, "geometry": {"type": "Point", "coordinates": [70.7765, 22.3105]}}, {"type": "Feature", "properties": {"name": "ChargeZone \u2014 Greenland Chowkdi", "category": "EV_CHARGER", "source": "synthetic"}, "geometry": {"type": "Point", "coordinates": [70.7685, 22.33]}}, {"type": "Feature", "properties": {"name": "Relux \u2014 Astron Chowk", "category": "EV_CHARGER", "source": "synthetic"}, "geometry": {"type": "Point", "coordinates": [70.7655, 22.2908]}}, {"type": "Feature", "properties": {"name": "Tata Power EZ \u2014 Bhaktinagar", "category": "EV_CHARGER", "source": "synthetic"}, "geometry": {"type": "Point", "coordinates": [70.8005, 22.2865]}}, {"type": "Feature", "properties": {"name": "EV plugNgo \u2014 Airport Rd", "category": "EV_CHARGER", "source": "synthetic"}, "geometry": {"type": "Point", "coordinates": [70.779, 22.312]}}, {"type": "Feature", "properties": {"name": "Jio-bp pulse \u2014 80 Feet Rd", "category": "EV_CHARGER", "source": "synthetic"}, "geometry": {"type": "Point", "coordinates": [70.757, 22.2955]}}, {"type": "Feature", "properties": {"name": "ChargeZone \u2014 Kotecha Chowk", "category": "EV_CHARGER", "source": "synthetic"}, "geometry": {"type": "Point", "coordinates": [70.7245, 22.2895]}}]}