{"type": "FeatureCollection", "features": [{"type": "Feature", "properties": {"name": "Fuel Hp", "category": "fuel_station"}, "geometry": {"type": "Point", "coordinates": [70.8874181, 22.3342501]}}, {"type": "Feature", "properties": {"name": "indian oil", "category": "fuel_station"}, "geometry": {"type": "Point", "coordinates": [70.853262, 22.325079]}}, {"type": "Feature", "properties": {"name": "indian oil", "category": "fuel_station"}, "geometry": {"type": "Point", "coordinates": [70.8528792, 22.325795]}}, {"type": "Feature", "properties": {"name": "Hp petrol pump", "category": "fuel_station"}, "geometry": {"type": "Point", "coordinates": [70.9082668, 22.3405925]}}, {"type": "Feature", "properties": {"name": "HP petrol", "category": "fuel_station"}, "geometry": {"type": "Point", "coordinates": [70.8013046, 22.2978366]}}, {"type": "Feature", "properties": {"name": "CNG Indian oil petrol pump", "category": "fuel_station"}, "geometry": {"type": "Point", "coordinates": [70.7691974, 22.2841858]}}, {"type": "Feature", "properties": {"name": "CNG Indian oil petrol pump", "category": "fuel_station"}, "geometry": {"type": "Point", "coordinates": [70.7040292, 22.2585769]}}, {"type": "Feature", "properties": {"name": "Indian Oil", "category": "fuel_station"}, "geometry": {"type": "Point", "coordinates": [70.7415993, 22.2699212]}}]}