{"type": "FeatureCollection", "features": [{"type": "Feature", "properties": {"name": "Rajkot hospital", "category": "hospital"}, "geometry": {"type": "Point", "coordinates": [70.8020829, 22.3041306]}}, {"type": "Feature", "properties": {"name": "Miunisipal hospital", "category": "hospital"}, "geometry": {"type": "Point", "coordinates": [70.8011916, 22.3039712]}}, {"type": "Feature", "properties": {"name": "sheetal hospital", "category": "hospital"}, "geometry": {"type": "Point", "coordinates": [70.8020542, 22.3046655]}}, {"type": "Feature", "properties": {"name": "Darshan Eye Care Centre", "category": "hospital"}, "geometry": {"type": "Point", "coordinates": [70.7992646, 22.2889488]}}, {"type": "Feature", "properties": {"name": "Dr.Dholakia Orthopaedic Hospital", "category": "hospital"}, "geometry": {"type": "Point", "coordinates": [70.7971128, 22.2883091]}}, {"type": "Feature", "properties": {"name": "Shri Giriraj Multi Speciality Hospital", "category": "hospital"}, "geometry": {"type": "Point", "coordinates": [70.7735483, 22.2833478]}}, {"type": "Feature", "properties": {"name": "Shree G.T. Sheth Orthopaedic Hospital", "category": "hospital"}, "geometry": {"type": "Point", "coordinates": [70.7972784, 22.3061813]}}, {"type": "Feature", "properties": {"name": "Madhuram Hospital, Rajkot", "category": "hospital"}, "geometry": {"type": "Point", "coordinates": [70.8001081, 22.2785168]}}, {"type": "Feature", "properties": {"name": "Vatsalya Maternity Home", "category": "hospital"}, "geometry": {"type": "Point", "coordinates": [70.8048315, 22.2926764]}}, {"type": "Feature", "properties": {"name": "Jethwani Hospital", "category": "hospital"}, "geometry": {"type": "Point", "coordinates": [70.7994457, 22.3099991]}}, {"type": "Feature", "properties": {"name": "Shri Jalaram Rajhukul Sarvojanik Hospital", "category": "hospital"}, "geometry": {"type": "Point", "coordinates": [70.7833913, 22.2864955]}}, {"type": "Feature", "properties": {"name": "N M Virani Wockhardt Hospital, Rajkot", "category": "hospital"}, "geometry": {"type": "Point", "coordinates": [70.7742114, 22.2881992]}}, {"type": "Feature", "properties": {"name": "Shree Gokul Critical Care Unit and Hospital", "category": "hospital"}, "geometry": {"type": "Point", "coordinates": [70.7946063, 22.2880243]}}, {"type": "Feature", "properties": {"name": "Raghuveer Hospital, Rajkot", "category": "hospital"}, "geometry": {"type": "Point", "coordinates": [70.7933912, 22.2724208]}}, {"type": "Feature", "properties": {"name": "Sadbhavna Hospital", "category": "hospital"}, "geometry": {"type": "Point", "coordinates": [70.7677091, 22.3095077]}}, {"type": "Feature", "properties": {"name": "H. J Doshi Sarvajanik Hospital And Medical Research", "category": "hospital"}, "geometry": {"type": "Point", "coordinates": [70.7961184, 22.2651351]}}, {"type": "Feature", "properties": {"name": "The Rathod Hospital", "category": "hospital"}, "geometry": {"type": "Point", "coordinates": [70.788238, 22.2908213]}}, {"type": "Feature", "properties": {"name": "Chinmay Hospital", "category": "hospital"}, "geometry": {"type": "Point", "coordinates": [70.7757671, 22.2984723]}}, {"type": "Feature", "properties": {"name": "Prabhat Hospital, Rajkot", "category": "hospital"}, "geometry": {"type": "Point", "coordinates": [70.7959065, 22.3078365]}}, {"type": "Feature", "properties": {"name": "Naman Neurosurgical Nursing Home", "category": "clinic"}, "geometry": {"type": "Point", "coordinates": [70.7949637, 22.2881521]}}, {"type": "Feature", "properties": {"name": "Radia Hospital", "category": "hospital"}, "geometry": {"type": "Point", "coordinates": [70.7808781, 22.2924369]}}, {"type": "Feature", "properties": {"name": "Satnam Child Care", "category": "hospital"}, "geometry": {"type": "Point", "coordinates": [70.7869667, 22.2862647]}}, {"type": "Feature", "properties": {"name": "Ashka Maternity Home and Surgical Hospital", "category": "hospital"}, "geometry": {"type": "Point", "coordinates": [70.7696289, 22.3008994]}}, {"type": "Feature", "properties": {"name": "Ashirwad Hospital, Rajkot", "category": "hospital"}, "geometry": {"type": "Point", "coordinates": [70.7836381, 22.2633131]}}, {"type": "Feature", "properties": {"name": "Jain Hospital, Rajkot", "category": "hospital"}, "geometry": {"type": "Point", "coordinates": [70.7847746, 22.2982155]}}, {"type": "Feature", "properties": {"name": "Mathur Hospital", "category": "hospital"}, "geometry": {"type": "Point", "coordinates": [70.7682053, 22.2938825]}}, {"type": "Feature", "properties": {"name": "B.T.Savani Kidney Hospital", "category": "hospital"}, "geometry": {"type": "Point", "coordinates": [70.7530501, 22.2869956]}}, {"type": "Feature", "properties": {"name": "Shivani Hospital, Rajkot", "category": "hospital"}, "geometry": {"type": "Point", "coordinates": [70.7999767, 22.2754483]}}, {"type": "Feature", "properties": {"name": "Nakshatra Children Hospital", "category": "hospital"}, "geometry": {"type": "Point", "coordinates": [70.8000606, 22.2785602]}}, {"type": "Feature", "properties": {"name": "Dr Sanjiv Patels Urology Center", "category": "hospital"}, "geometry": {"type": "Point", "coordinates": [70.7949248, 22.2907654]}}, {"type": "Feature", "properties": {"name": "Sankalp Hospital, Rajkot", "category": "hospital"}, "geometry": {"type": "Point", "coordinates": [70.8000646, 22.2788729]}}, {"type": "Feature", "properties": {"name": "Sterling Hospital, Rajkot", "category": "hospital"}, "geometry": {"type": "Point", "coordinates": [70.7676896, 22.3067558]}}, {"type": "Feature", "properties": {"name": "Dr. Mody Hospital", "category": "hospital"}, "geometry": {"type": "Point", "coordinates": [70.7960057, 22.2955725]}}, {"type": "Feature", "properties": {"name": "Sri Sathya Sai Heart Hospital", "category": "hospital"}, "geometry": {"type": "Point", "coordinates": [70.7694451, 22.2783324]}}, {"type": "Feature", "properties": {"name": "Aishwarya Cancer Hospital", "category": "hospital"}, "geometry": {"type": "Point", "coordinates": [70.7873201, 22.2912382]}}, {"type": "Feature", "properties": {"name": "Nitya Children Hospital", "category": "hospital"}, "geometry": {"type": "Point", "coordinates": [70.7704376, 22.2855362]}}, {"type": "Feature", "properties": {"name": "Netradeep Eye Hospital Pvt. Ltd. - Rajkot", "category": "hospital"}, "geometry": {"type": "Point", "coordinates": [70.7670164, 22.3210166]}}, {"type": "Feature", "properties": {"name": "Shreeji Hospital", "category": "hospital"}, "geometry": {"type": "Point", "coordinates": [70.7881442, 22.2907679]}}, {"type": "Feature", "properties": {"name": "Gadre Eye Care Centre", "category": "hospital"}, "geometry": {"type": "Point", "coordinates": [70.7929198, 22.2872264]}}, {"type": "Feature", "properties": {"name": "Aakar Hospital, Rajkot", "category": "hospital"}, "geometry": {"type": "Point", "coordinates": [70.7924357, 22.2873055]}}, {"type": "Feature", "properties": {"name": "Dhruva Eye Hospital", "category": "hospital"}, "geometry": {"type": "Point", "coordinates": [70.7986008, 22.2900544]}}, {"type": "Feature", "properties": {"name": "Heal Well Hospital", "category": "hospital"}, "geometry": {"type": "Point", "coordinates": [70.782702, 22.2922383]}}, {"type": "Feature", "properties": {"name": "Dastur Hospital", "category": "hospital"}, "geometry": {"type": "Point", "coordinates": [70.7898219, 22.2939408]}}, {"type": "Feature", "properties": {"name": "Sahyog Hospital Pvt Ltd", "category": "hospital"}, "geometry": {"type": "Point", "coordinates": [70.787774, 22.2681646]}}, {"type": "Feature", "properties": {"name": "Keshubhai Mehta Eye Hospital", "category": "hospital"}, "geometry": {"type": "Point", "coordinates": [70.8038244, 22.2927037]}}, {"type": "Feature", "properties": {"name": "Om Baby Care Hospital", "category": "hospital"}, "geometry": {"type": "Point", "coordinates": [70.7968285, 22.3011078]}}, {"type": "Feature", "properties": {"name": "Siddhi Orthopaedic Hospital", "category": "hospital"}, "geometry": {"type": "Point", "coordinates": [70.8007392, 22.3013467]}}, {"type": "Feature", "properties": {"name": "Mangalam Hospital, Rajkot", "category": "hospital"}, "geometry": {"type": "Point", "coordinates": [70.7953258, 22.287518]}}, {"type": "Feature", "properties": {"name": "Maheshwari Eye Care Hospital", "category": "hospital"}, "geometry": {"type": "Point", "coordinates": [70.8010845, 22.2977539]}}, {"type": "Feature", "properties": {"name": "Bavishi Eye Hospital", "category": "hospital"}, "geometry": {"type": "Point", "coordinates": [70.7983869, 22.2893068]}}, {"type": "Feature", "properties": {"name": "Gokul Hospital And Trauma Centre", "category": "hospital"}, "geometry": {"type": "Point", "coordinates": [70.7944071, 22.2875974]}}, {"type": "Feature", "properties": {"name": "Shree Padmakunverba Hospital", "category": "hospital"}, "geometry": {"type": "Point", "coordinates": [70.808661, 22.2888325]}}, {"type": "Feature", "properties": {"name": "Dev Hospital, Rajkot", "category": "hospital"}, "geometry": {"type": "Point", "coordinates": [70.7964027, 22.2884983]}}, {"type": "Feature", "properties": {"name": "Accident Fracture Hospital", "category": "hospital"}, "geometry": {"type": "Point", "coordinates": [70.8023894, 22.2900817]}}, {"type": "Feature", "properties": {"name": "Rudram Nursing Home", "category": "clinic"}, "geometry": {"type": "Point", "coordinates": [70.7925665, 22.2868038]}}, {"type": "Feature", "properties": {"name": "Radiance Hosptial", "category": "hospital"}, "geometry": {"type": "Point", "coordinates": [70.8188541, 22.3060324]}}, {"type": "Feature", "properties": {"name": "Pandit Deendayal Upadhyay Medical College Hospital(P.D.U Medical College)", "category": "hospital"}, "geometry": {"type": "Point", "coordinates": [70.7987013, 22.304912]}}, {"type": "Feature", "properties": {"name": "Samarpan Hospital, Rajkot", "category": "hospital"}, "geometry": {"type": "Point", "coordinates": [70.8008927, 22.2893918]}}, {"type": "Feature", "properties": {"name": "Dr Gandhi Orthopaedic Hospital, Rajkot", "category": "hospital"}, "geometry": {"type": "Point", "coordinates": [70.7954505, 22.2882538]}}, {"type": "Feature", "properties": {"name": "Christ Hospital", "category": "hospital"}, "geometry": {"type": "Point", "coordinates": [70.7643114, 22.3352974]}}, {"type": "Feature", "properties": {"name": "Tejas Maternity and Surgical Nursing Home", "category": "clinic"}, "geometry": {"type": "Point", "coordinates": [70.8083338, 22.291003]}}, {"type": "Feature", "properties": {"name": "Raj Ent Hospital - Rajkot", "category": "hospital"}, "geometry": {"type": "Point", "coordinates": [70.788572, 22.2944136]}}, {"type": "Feature", "properties": {"name": "Arpan Hospital", "category": "hospital"}, "geometry": {"type": "Point", "coordinates": [70.7717586, 22.287863]}}, {"type": "Feature", "properties": {"name": "Vijay Vachhrajani Memorial Hospital", "category": "hospital"}, "geometry": {"type": "Point", "coordinates": [70.7940437, 22.2940761]}}, {"type": "Feature", "properties": {"name": "Sadbhavna Surgical Hospital", "category": "hospital"}, "geometry": {"type": "Point", "coordinates": [70.7987013, 22.2889698]}}, {"type": "Feature", "properties": {"name": "Mangalam Hospital Maternity Home And Surgical Hospital", "category": "hospital"}, "geometry": {"type": "Point", "coordinates": [70.8000626, 22.2979438]}}, {"type": "Feature", "properties": {"name": "Yash Hospital, Rajkot", "category": "hospital"}, "geometry": {"type": "Point", "coordinates": [70.7966166, 22.2885734]}}, {"type": "Feature", "properties": {"name": "Shri Swaminarayan Gurukul Hospital", "category": "hospital"}, "geometry": {"type": "Point", "coordinates": [70.7998064, 22.2771808]}}, {"type": "Feature", "properties": {"name": "Bhatt Eye Hospital", "category": "hospital"}, "geometry": {"type": "Point", "coordinates": [70.7872765, 22.292592]}}, {"type": "Feature", "properties": {"name": "Retina Hospital", "category": "hospital"}, "geometry": {"type": "Point", "coordinates": [70.7857748, 22.2986841]}}, {"type": "Feature", "properties": {"name": "Samanvay Hospital", "category": "hospital"}, "geometry": {"type": "Point", "coordinates": [70.8037712, 22.2933519]}}, {"type": "Feature", "properties": {"name": "Ratnam Hospital", "category": "hospital"}, "geometry": {"type": "Point", "coordinates": [70.7949997, 22.2970295]}}, {"type": "Feature", "properties": {"name": "S.S. Shree Dharmajivandasji Hospital", "category": "hospital"}, "geometry": {"type": "Point", "coordinates": [70.7992995, 22.2748688]}}, {"type": "Feature", "properties": {"name": "Ayush Hospital", "category": "hospital"}, "geometry": {"type": "Point", "coordinates": [70.7935072, 22.2872413]}}, {"type": "Feature", "properties": {"name": "Centre For Sight, Rajkot", "category": "hospital"}, "geometry": {"type": "Point", "coordinates": [70.8009396, 22.3009602]}}, {"type": "Feature", "properties": {"name": "Shiv Hospital, Rajkot", "category": "hospital"}, "geometry": {"type": "Point", "coordinates": [70.8039712, 22.2899253]}}, {"type": "Feature", "properties": {"name": "Shreyas Hospital, Rajkot", "category": "hospital"}, "geometry": {"type": "Point", "coordinates": [70.7962672, 22.2886162]}}, {"type": "Feature", "properties": {"name": "Aaruni Hospital Pvt Ltd", "category": "hospital"}, "geometry": {"type": "Point", "coordinates": [70.77627, 22.2876979]}}, {"type": "Feature", "properties": {"name": "Gaurav Accident - Fracture Hospital and Research Institute", "category": "hospital"}, "geometry": {"type": "Point", "coordinates": [70.8023693, 22.2897367]}}, {"type": "Feature", "properties": {"name": "Astha Child Care and Newborn Care Centre", "category": "hospital"}, "geometry": {"type": "Point", "coordinates": [70.7940229, 22.2876371]}}, {"type": "Feature", "properties": {"name": "Divine Helth Care Centre", "category": "hospital"}, "geometry": {"type": "Point", "coordinates": [70.7984318, 22.2893297]}}, {"type": "Feature", "properties": {"name": "Vision Eye Care Center - Rajkot", "category": "hospital"}, "geometry": {"type": "Point", "coordinates": [70.7942918, 22.2878406]}}, {"type": "Feature", "properties": {"name": "Pandya Ent Hospital", "category": "hospital"}, "geometry": {"type": "Point", "coordinates": [70.7990983, 22.3014962]}}, {"type": "Feature", "properties": {"name": "Shivalik Hospital Neuro Spine and Gynec Center", "category": "hospital"}, "geometry": {"type": "Point", "coordinates": [70.7846446, 22.2964585]}}, {"type": "Feature", "properties": {"name": "Sarvottam Surgical Hospital", "category": "hospital"}, "geometry": {"type": "Point", "coordinates": [70.7992057, 22.2889302]}}, {"type": "Feature", "properties": {"name": "Subham Hospital, Rajkot", "category": "hospital"}, "geometry": {"type": "Point", "coordinates": [70.8101691, 22.28177]}}, {"type": "Feature", "properties": {"name": "Nathalal Parekh Cancer Research Institute & Hospital", "category": "hospital"}, "geometry": {"type": "Point", "coordinates": [70.7751921, 22.2987168]}}, {"type": "Feature", "properties": {"name": "Kadivar Multispeciality Hospital", "category": "hospital"}, "geometry": {"type": "Point", "coordinates": [70.7783647, 22.3229185]}}, {"type": "Feature", "properties": {"name": "Shreeji Clinic", "category": "clinic"}, "geometry": {"type": "Point", "coordinates": [70.7915223, 22.2453533]}}, {"type": "Feature", "properties": {"name": "Dr. Gadhvi Clinic", "category": "clinic"}, "geometry": {"type": "Point", "coordinates": [70.7925193, 22.2531554]}}, {"type": "Feature", "properties": {"name": "Manish Patel's Hospital", "category": "hospital"}, "geometry": {"type": "Point", "coordinates": [70.8208144, 22.2933323]}}, {"type": "Feature", "properties": {"name": "V.K. Kamdar General Hospital", "category": "hospital"}, "geometry": {"type": "Point", "coordinates": [70.7061702, 22.2881038]}}, {"type": "Feature", "properties": {"name": "Aastha Multispeciality Hospital", "category": "hospital"}, "geometry": {"type": "Point", "coordinates": [70.8213545, 22.3064384]}}, {"type": "Feature", "properties": {"name": "Marvel Hospital", "category": "hospital"}, "geometry": {"type": "Point", "coordinates": [70.7839421, 22.2504748]}}, {"type": "Feature", "properties": {"name": "Omkar Hospital", "category": "hospital"}, "geometry": {"type": "Point", "coordinates": [70.782006, 22.3203697]}}, {"type": "Feature", "properties": {"name": "Rajkot General Hospital", "category": "hospital"}, "geometry": {"type": "Point", "coordinates": [70.7816119, 22.3206189]}}, {"type": "Feature", "properties": {"name": "Partha Clinic", "category": "clinic"}, "geometry": {"type": "Point", "coordinates": [70.7901529, 22.2500504]}}, {"type": "Feature", "properties": {"name": "Synergy Superspeciality Hospital", "category": "hospital"}, "geometry": {"type": "Point", "coordinates": [70.7689, 22.321849]}}, {"type": "Feature", "properties": {"name": "Jay Bahuchar Clinic", "category": "clinic"}, "geometry": {"type": "Point", "coordinates": [70.752184, 22.2818593]}}, {"type": "Feature", "properties": {"name": "Nagar Clinic", "category": "clinic"}, "geometry": {"type": "Point", "coordinates": [70.815742, 22.259652]}}, {"type": "Feature", "properties": {"name": "Dr. Swami Hospital", "category": "hospital"}, "geometry": {"type": "Point", "coordinates": [70.817643, 22.3046473]}}, {"type": "Feature", "properties": {"name": "Bhargav Clinic", "category": "clinic"}, "geometry": {"type": "Point", "coordinates": [70.793573, 22.253099]}}, {"type": "Feature", "properties": {"name": "HCG Hospitals", "category": "hospital"}, "geometry": {"type": "Point", "coordinates": [70.7737221, 22.3195189]}}, {"type": "Feature", "properties": {"name": "Virani Children Hospital", "category": "hospital"}, "geometry": {"type": "Point", "coordinates": [70.8001219, 22.2779197]}}, {"type": "Feature", "properties": {"name": "Sunrise Hospital", "category": "hospital"}, "geometry": {"type": "Point", "coordinates": [70.7840753, 22.2805211]}}, {"type": "Feature", "properties": {"name": "Patel Clinic", "category": "clinic"}, "geometry": {"type": "Point", "coordinates": [70.782884, 22.2675239]}}, {"type": "Feature", "properties": {"name": "Divyam Hospital", "category": "hospital"}, "geometry": {"type": "Point", "coordinates": [70.7933967, 22.287049]}}, {"type": "Feature", "properties": {"name": "Shanti Multispeciality Hospital", "category": "hospital"}, "geometry": {"type": "Point", "coordinates": [70.7621046, 22.2878539]}}, {"type": "Feature", "properties": {"name": "Killol Children Hospital", "category": "hospital"}, "geometry": {"type": "Point", "coordinates": [70.7562848, 22.2945677]}}, {"type": "Feature", "properties": {"name": "Wellness Hospital & Trauma Centre", "category": "hospital"}, "geometry": {"type": "Point", "coordinates": [70.7881175, 22.2929941]}}, {"type": "Feature", "properties": {"name": "Darshini Maternity Home", "category": "hospital"}, "geometry": {"type": "Point", "coordinates": [70.781524, 22.2609546]}}, {"type": "Feature", "properties": {"name": "Angel Hospital", "category": "hospital"}, "geometry": {"type": "Point", "coordinates": [70.8016994, 22.2842263]}}, {"type": "Feature", "properties": {"name": "Trinity Hospital", "category": "hospital"}, "geometry": {"type": "Point", "coordinates": [70.7811522, 22.2773313]}}, {"type": "Feature", "properties": {"name": "Vibrant Hospital", "category": "hospital"}, "geometry": {"type": "Point", "coordinates": [70.7602657, 22.2908432]}}, {"type": "Feature", "properties": {"name": "Jeevanshree Clinic", "category": "clinic"}, "geometry": {"type": "Point", "coordinates": [70.7690906, 22.2869274]}}, {"type": "Feature", "properties": {"name": "Eva Women's Healthcare Centre", "category": "hospital"}, "geometry": {"type": "Point", "coordinates": [70.759926, 22.2853276]}}, {"type": "Feature", "properties": {"name": "Shree Shivanand General & Multispeciality Trust Hospital", "category": "hospital"}, "geometry": {"type": "Point", "coordinates": [70.7939402, 22.2722113]}}, {"type": "Feature", "properties": {"name": "Wings IVF Speciality Hospital", "category": "hospital"}, "geometry": {"type": "Point", "coordinates": [70.7689513, 22.3055409]}}, {"type": "Feature", "properties": {"name": "Paritosh Hospital", "category": "hospital"}, "geometry": {"type": "Point", "coordinates": [70.7938639, 22.2715198]}}, {"type": "Feature", "properties": {"name": "Selus Hospitals", "category": "hospital"}, "geometry": {"type": "Point", "coordinates": [70.765117, 22.301694]}}, {"type": "Feature", "properties": {"name": "Jaynath Hospital", "category": "hospital"}, "geometry": {"type": "Point", "coordinates": [70.803466, 22.279125]}}, {"type": "Feature", "properties": {"name": "Kalrav Children's Hospital", "category": "hospital"}, "geometry": {"type": "Point", "coordinates": [70.7725457, 22.2832412]}}, {"type": "Feature", "properties": {"name": "Unique Hospital & Research Centre", "category": "hospital"}, "geometry": {"type": "Point", "coordinates": [70.7880923, 22.2927753]}}, {"type": "Feature", "properties": {"name": "Shree Swaminarayan Gurukul Sanjivani Hospital", "category": "hospital"}, "geometry": {"type": "Point", "coordinates": [70.7847434, 22.2641699]}}, {"type": "Feature", "properties": {"name": "Genesis Multispeciality Hospital", "category": "hospital"}, "geometry": {"type": "Point", "coordinates": [70.7624319, 22.3002746]}}, {"type": "Feature", "properties": {"name": "Vatsalya Hospital", "category": "hospital"}, "geometry": {"type": "Point", "coordinates": [70.7719487, 22.2830414]}}, {"type": "Feature", "properties": {"name": "Krishnam Clinic", "category": "clinic"}, "geometry": {"type": "Point", "coordinates": [70.7801813, 22.2706223]}}, {"type": "Feature", "properties": {"name": "Siddhi Vinayak Hospital", "category": "hospital"}, "geometry": {"type": "Point", "coordinates": [70.7852501, 22.2652715]}}, {"type": "Feature", "properties": {"name": "Vatsalya Multispeciality Hospital", "category": "hospital"}, "geometry": {"type": "Point", "coordinates": [70.7827429, 22.2749598]}}, {"type": "Feature", "properties": {"name": "Prarthana Hospital", "category": "hospital"}, "geometry": {"type": "Point", "coordinates": [70.8033598, 22.2833252]}}, {"type": "Feature", "properties": {"name": "Viraj Hospital", "category": "hospital"}, "geometry": {"type": "Point", "coordinates": [70.780497, 22.2701381]}}, {"type": "Feature", "properties": {"name": "Child Neurology and Epilepsy Centre", "category": "hospital"}, "geometry": {"type": "Point", "coordinates": [70.7875604, 22.2912373]}}, {"type": "Feature", "properties": {"name": "Bhakti Women's Hospital", "category": "hospital"}, "geometry": {"type": "Point", "coordinates": [70.7820038, 22.2607367]}}, {"type": "Feature", "properties": {"name": "Soham Hospital", "category": "hospital"}, "geometry": {"type": "Point", "coordinates": [70.7925987, 22.2719301]}}, {"type": "Feature", "properties": {"name": "Devani Medical Hospital", "category": "hospital"}, "geometry": {"type": "Point", "coordinates": [70.788355, 22.2955976]}}, {"type": "Feature", "properties": {"name": "Pratham Clinic and Nursing Home", "category": "clinic"}, "geometry": {"type": "Point", "coordinates": [70.784713, 22.258431]}}, {"type": "Feature", "properties": {"name": "Jay Shree Momai Clinic", "category": "clinic"}, "geometry": {"type": "Point", "coordinates": [70.7894567, 22.2599487]}}, {"type": "Feature", "properties": {"name": "Radhika Clinic", "category": "clinic"}, "geometry": {"type": "Point", "coordinates": [70.7728573, 22.2933903]}}, {"type": "Feature", "properties": {"name": "Aarogyam Orthopaedic Hospital", "category": "hospital"}, "geometry": {"type": "Point", "coordinates": [70.7833128, 22.2794282]}}, {"type": "Feature", "properties": {"name": "Parekh Hospital", "category": "hospital"}, "geometry": {"type": "Point", "coordinates": [70.8042537, 22.2902575]}}, {"type": "Feature", "properties": {"name": "Netradeep Eye Hospital", "category": "hospital"}, "geometry": {"type": "Point", "coordinates": [70.76182, 22.287454]}}, {"type": "Feature", "properties": {"name": "Medisurge Multispeciality Hospital", "category": "hospital"}, "geometry": {"type": "Point", "coordinates": [70.781883, 22.269213]}}, {"type": "Feature", "properties": {"name": "Saket Hospital", "category": "hospital"}, "geometry": {"type": "Point", "coordinates": [70.7828122, 22.2785275]}}, {"type": "Feature", "properties": {"name": "Muskaan Children Hospital", "category": "hospital"}, "geometry": {"type": "Point", "coordinates": [70.7926234, 22.2875797]}}, {"type": "Feature", "properties": {"name": "Dr. Kakadiya's Aradhana Hospital", "category": "hospital"}, "geometry": {"type": "Point", "coordinates": [70.7836039, 22.2795897]}}, {"type": "Feature", "properties": {"name": "Pragati Hospital", "category": "hospital"}, "geometry": {"type": "Point", "coordinates": [70.794739, 22.2869775]}}, {"type": "Feature", "properties": {"name": "Sahajanand Clinic", "category": "clinic"}, "geometry": {"type": "Point", "coordinates": [70.7706545, 22.2770311]}}, {"type": "Feature", "properties": {"name": "Flowrence Hospital", "category": "hospital"}, "geometry": {"type": "Point", "coordinates": [70.7838119, 22.2802533]}}, {"type": "Feature", "properties": {"name": "Yogi Clinic", "category": "clinic"}, "geometry": {"type": "Point", "coordinates": [70.781589, 22.270796]}}, {"type": "Feature", "properties": {"name": "Pioneer Hospital", "category": "hospital"}, "geometry": {"type": "Point", "coordinates": [70.788467, 22.2936174]}}, {"type": "Feature", "properties": {"name": "Advanced Skin Clinic", "category": "clinic"}, "geometry": {"type": "Point", "coordinates": [70.7915702, 22.2933806]}}, {"type": "Feature", "properties": {"name": "Diva Women's Hospital", "category": "hospital"}, "geometry": {"type": "Point", "coordinates": [70.7690081, 22.2871629]}}, {"type": "Feature", "properties": {"name": "Shrey Children's Hospital", "category": "hospital"}, "geometry": {"type": "Point", "coordinates": [70.7926039, 22.2719107]}}, {"type": "Feature", "properties": {"name": "Shivam Clinic", "category": "clinic"}, "geometry": {"type": "Point", "coordinates": [70.7749943, 22.2703425]}}, {"type": "Feature", "properties": {"name": "Shree Vishwakarma Clinic", "category": "clinic"}, "geometry": {"type": "Point", "coordinates": [70.785435, 22.265464]}}, {"type": "Feature", "properties": {"name": "Tara Hospital", "category": "hospital"}, "geometry": {"type": "Point", "coordinates": [70.7655323, 22.2835961]}}, {"type": "Feature", "properties": {"name": "Amee Health Centre", "category": "hospital"}, "geometry": {"type": "Point", "coordinates": [70.7868896, 22.2966584]}}, {"type": "Feature", "properties": {"name": "Om Hospital and Research Centre", "category": "hospital"}, "geometry": {"type": "Point", "coordinates": [70.765446, 22.291195]}}, {"type": "Feature", "properties": {"name": "Shree Krishna Children Hospital", "category": "hospital"}, "geometry": {"type": "Point", "coordinates": [70.7583304, 22.2951395]}}, {"type": "Feature", "properties": {"name": "Apporva Hospital", "category": "hospital"}, "geometry": {"type": "Point", "coordinates": [70.8039192, 22.2834862]}}, {"type": "Feature", "properties": {"name": "Parth Hospital", "category": "hospital"}, "geometry": {"type": "Point", "coordinates": [70.7972275, 22.2646021]}}, {"type": "Feature", "properties": {"name": "Subham Oral Surgical Hospital", "category": "hospital"}, "geometry": {"type": "Point", "coordinates": [70.7838099, 22.2808799]}}, {"type": "Feature", "properties": {"name": "Saurashtra Children Hospital", "category": "hospital"}, "geometry": {"type": "Point", "coordinates": [70.7828371, 22.2791674]}}, {"type": "Feature", "properties": {"name": "Mother Care & Maternity Hospital", "category": "hospital"}, "geometry": {"type": "Point", "coordinates": [70.766621, 22.301609]}}, {"type": "Feature", "properties": {"name": "Landmark Hospital", "category": "hospital"}, "geometry": {"type": "Point", "coordinates": [70.7884292, 22.2957121]}}, {"type": "Feature", "properties": {"name": "Vatsalya Clinical Hospitals", "category": "hospital"}, "geometry": {"type": "Point", "coordinates": [70.7600167, 22.291567]}}, {"type": "Feature", "properties": {"name": "Krishna Prasuti Gruh & Gynec Hospital", "category": "hospital"}, "geometry": {"type": "Point", "coordinates": [70.761595, 22.289785]}}, {"type": "Feature", "properties": {"name": "Sushrut Hospital", "category": "hospital"}, "geometry": {"type": "Point", "coordinates": [70.7877278, 22.2910949]}}, {"type": "Feature", "properties": {"name": "Sparsh Women's Hospital", "category": "hospital"}, "geometry": {"type": "Point", "coordinates": [70.7631658, 22.2875941]}}, {"type": "Feature", "properties": {"name": "Ayuraesthetic Ayurvedic clinic", "category": "hospital"}, "geometry": {"type": "Point", "coordinates": [70.7670941, 22.2924159]}}, {"type": "Feature", "properties": {"name": "Smile Shiners Dental Clinic", "category": "hospital"}, "geometry": {"type": "Point", "coordinates": [70.7546764, 22.3002635]}}, {"type": "Feature", "properties": {"name": "MMHC", "category": "clinic"}, "geometry": {"type": "Point", "coordinates": [70.8010552, 22.3023848]}}, {"type": "Feature", "properties": {"name": "Delta Diagonostic Center & Bhatt Laboratory", "category": "hospital"}, "geometry": {"type": "Point", "coordinates": [70.7846965, 22.2892483]}}, {"type": "Feature", "properties": {"name": "Vachhani Hospital", "category": "hospital"}, "geometry": {"type": "Point", "coordinates": [70.7847505, 22.2891746]}}, {"type": "Feature", "properties": {"name": "Homoeopathic Clinic", "category": "clinic"}, "geometry": {"type": "Point", "coordinates": [70.7759235, 22.3000609]}}, {"type": "Feature", "properties": {"name": "Unnamed", "category": "hospital"}, "geometry": {"type": "Point", "coordinates": [70.79638102307692, 22.265306784615383]}}]}