{"type": "FeatureCollection", "features": [{"type": "Feature", "properties": {"category": "commercial", "source": "synthetic"}, "geometry": {"type": "Polygon", "coordinates": [[[70.8005, 22.2915], [70.8005, 22.3055], [70.785, 22.3055], [70.785, 22.2915], [70.8005, 22.2915]]]}}, {"type": "Feature", "properties": {"category": "commercial", "source": "synthetic"}, "geometry": {"type": "Polygon", "coordinates": [[[70.7735, 22.2845], [70.7735, 22.299], [70.7545, 22.299], [70.7545, 22.2845], [70.7735, 22.2845]]]}}, {"type": "Feature", "properties": {"category": "commercial", "source": "synthetic"}, "geometry": {"type": "Polygon", "coordinates": [[[70.7445, 22.2895], [70.7445, 22.3155], [70.7295, 22.3155], [70.7295, 22.2895], [70.7445, 22.2895]]]}}, {"type": "Feature", "properties": {"category": "commercial", "source": "synthetic"}, "geometry": {"type": "Polygon", "coordinates": [[[70.7785, 22.2675], [70.7785, 22.2805], [70.765, 22.2805], [70.765, 22.2675], [70.7785, 22.2675]]]}}, {"type": "Feature", "properties": {"category": "mixed_use", "source": "synthetic"}, "geometry": {"type": "Polygon", "coordinates": [[[70.836, 22.2545], [70.836, 22.281], [70.793, 22.281], [70.793, 22.2545], [70.836, 22.2545]]]}}, {"type": "Feature", "properties": {"category": "mixed_use", "source": "synthetic"}, "geometry": {"type": "Polygon", "coordinates": [[[70.786, 22.28], [70.786, 22.307], [70.776, 22.307], [70.776, 22.28], [70.786, 22.28]]]}}, {"type": "Feature", "properties": {"category": "industrial", "source": "synthetic"}, "geometry": {"type": "Polygon", "coordinates": [[[70.846, 22.2545], [70.846, 22.271], [70.819, 22.271], [70.819, 22.2545], [70.846, 22.2545]]]}}, {"type": "Feature", "properties": {"category": "industrial", "source": "synthetic"}, "geometry": {"type": "Polygon", "coordinates": [[[70.8105, 22.2825], [70.8105, 22.2915], [70.7935, 22.2915], [70.7935, 22.2825], [70.8105, 22.2825]]]}}, {"type": "Feature", "properties": {"category": "residential", "source": "synthetic"}, "geometry": {"type": "Polygon", "coordinates": [[[70.7545, 22.2835], [70.7545, 22.331], [70.718, 22.331], [70.718, 22.2835], [70.7545, 22.2835]]]}}, {"type": "Feature", "properties": {"category": "residential", "source": "synthetic"}, "geometry": {"type": "Polygon", "coordinates": [[[70.852, 22.311], [70.852, 22.362], [70.768, 22.362], [70.768, 22.311], [70.852, 22.311]]]}}, {"type": "Feature", "properties": {"category": "residential", "source": "synthetic"}, "geometry": {"type": "Polygon", "coordinates": [[[70.792, 22.2385], [70.792, 22.2675], [70.728, 22.2675], [70.728, 22.2385], [70.792, 22.2385]]]}}, {"type": "Feature", "properties": {"category": "agricultural", "source": "synthetic"}, "geometry": {"type": "Polygon", "coordinates": [[[70.92, 22.22], [70.92, 22.301], [70.858, 22.301], [70.858, 22.22], [70.92, 22.22]]]}}, {"type": "Feature", "properties": {"category": "agricultural", "source": "synthetic"}, "geometry": {"type": "Polygon", "coordinates": [[[70.92, 22.303], [70.92, 22.38], [70.856, 22.38], [70.856, 22.303], [70.92, 22.303]]]}}, {"type": "Feature", "properties": {"category": "agricultural", "source": "synthetic"}, "geometry": {"type": "Polygon", "coordinates": [[[70.726, 22.22], [70.726, 22.28], [70.7, 22.28], [70.7, 22.22], [70.726, 22.22]]]}}, {"type": "Feature", "properties": {"category": "protected", "name": "Lalpari Lake", "source": "synthetic"}, "geometry": {"type": "Polygon", "coordinates": [[[70.75817957147801, 22.319096474880066], [70.7581720122285, 22.318760443823617], [70.75812908946013, 22.318426720238772], [70.75805121680023, 22.31809851807697], [70.757939144454, 22.317778998091118], [70.75779395197023, 22.31747123739632], [70.75761703783564, 22.317178199837002], [70.75741010599894, 22.316902707445745], [70.75717514945434, 22.316647413268615], [70.7569144310431, 22.31641477581859], [70.7566304616579, 22.316207035402922], [70.75632597606047, 22.316026192552343], [70.75600390654496, 22.315873988759552], [70.75566735470106, 22.315751889712423], [70.75531956154839, 22.315661071183154], [70.75496387632981, 22.315602407709104], [70.7546037242639, 22.31557646417414], [70.75424257356688, 22.31558349037151], [70.75388390206116, 22.315623418600364], [70.75353116369187, 22.315695864319082], [70.75318775527339, 22.31580012984907], [70.7528569837857, 22.315935211093244], [70.75254203453528, 22.316099807204637], [70.75224594048663, 22.316292333111985], [70.75197155305972, 22.316510934781782], [70.7517215146741, 22.316753507069944], [70.75149823330412, 22.31701771399129], [70.75130385929005, 22.317301011211807], [70.75114026462843, 22.317600670547225], [70.75100902494103, 22.317913806232244], [70.75091140429636, 22.318237402707453], [70.75084834302992, 22.318568343656686], [70.75082044868067, 22.3189034420152], [70.7508279901316, 22.319239470659827], [70.75087089501066, 22.319573193485834], [70.75094875037807, 22.319901396570906], [70.7510608066931, 22.32022091912668], [70.75120598502308, 22.320528683939273], [70.75138288742517, 22.32082172700603], [70.75158981040158, 22.321097226082717], [70.75182476129855, 22.321352527866352], [70.75208547749189, 22.321585173551643], [70.75236944817412, 22.32179292251486], [70.7526739385337, 22.32197377389679], [70.75299601609346, 22.322125985876884], [70.75333257895456, 22.322248092452636], [70.75368038567402, 22.322338917562522], [70.7540360864876, 22.322397586416294], [70.7543962555774, 22.322423533923345], [70.75475742407302, 22.322416510137792], [70.75511611346802, 22.322376582667793], [70.75546886912983, 22.322304136025796], [70.7558122935795, 22.322199867925892], [70.75614307922098, 22.32206478256392], [70.7564580402039, 22.321900180945082], [70.75675414311284, 22.321707648352294], [70.75702853618738, 22.321489039075995], [70.75727857679091, 22.32124645855257], [70.75750185686384, 22.320982243083673], [70.75769622611575, 22.32069893733181], [70.75785981273314, 22.320399269809087], [70.75799104140334, 22.32008612659545], [70.75808864848122, 22.319762523539623], [70.75815169415267, 22.319431577210665], [70.75817957147801, 22.319096474880066]]]}}, {"type": "Feature", "properties": {"category": "protected", "name": "Aji riverbed", "source": "synthetic"}, "geometry": {"type": "Polygon", "coordinates": [[[70.73986500208744, 22.275355799633466], [70.77969497216613, 22.283321835362322], [70.77980642876112, 22.283339918646668], [70.8198065970658, 22.288340000151393], [70.85980676561995, 22.293340081059334], [70.85987012311844, 22.29334667959012], [70.91987067924653, 22.29834681359805], [70.9200131638801, 22.298352123911062], [70.92015552176721, 22.29834441240636], [70.92029638188346, 22.298323753346185], [70.92043438762924, 22.29829034568851], [70.92056820989606, 22.298244511171045], [70.92069655986799, 22.298186691212518], [70.92081820143505, 22.298117442661333], [70.92093196309874, 22.298037432432427], [70.92103674925505, 22.297947431083916], [70.92113155074651, 22.297848305395668], [70.9212154545812, 22.29774101002104], [70.92128765272543, 22.29762657829227], [70.92134744988535, 22.29750611226828], [70.92139427020248, 22.29738077212043], [70.92142766279869, 22.297251764958823], [70.92144730611743, 22.297120333206532], [70.92145301101921, 22.296987742633842], [70.92144472260168, 22.29685527016785], [70.92142252072696, 22.29672419159459], [70.92138661925094, 22.29659576927243], [70.92133736396217, 22.29647123997485], [70.9212752292503, 22.29635180297977], [70.92120081353622, 22.29623860852016], [70.9211148335076, 22.296132746707027], [70.92101811721614, 22.296035237031614], [70.92091159610207, 22.295947018547718], [70.92079629602372, 22.295868940828797], [70.92067332737776, 22.295801755786815], [70.9205438744057, 22.29574611043166], [70.9204091837896, 22.295702540640814], [70.92027055264661, 22.295671465999213], [70.92012931603801, 22.295653185759083], [70.8601616280894, 22.29065597194641], [70.82019358767961, 22.285660022745617], [70.78024967118665, 22.28066710056817], [70.74030535297278, 22.272678293753042], [70.7401340319297, 22.2726538518012], [70.73996080260947, 22.27264857648214], [70.69996119192766, 22.273648627669374], [70.69981906213198, 22.273658675250182], [70.6996786748502, 22.273681640391924], [70.69954138204909, 22.273717301928052], [70.699408505896, 22.273765316422534], [70.69928132602719, 22.273825221477217], [70.69916106722545, 22.273896440184615], [70.69904888762589, 22.273978286683477], [70.69894586756342, 22.274069972763456], [70.69885299916908, 22.27417061545538], [70.69877117681557, 22.27427924553404], [70.69870118850406, 22.274394816851633], [70.698643708275, 22.274516216411996], [70.69859928971619, 22.274642275088667], [70.69856836063053, 22.274771778883494], [70.69855121891503, 22.274903480617528], [70.69854802969061, 22.275036111941485], [70.69855882371053, 22.275168395550292], [70.6985834970626, 22.275299057483913], [70.6986218121685, 22.275426839396196], [70.69867340007013, 22.2755505106734], [70.69873776398161, 22.275668880285863], [70.69881428407211, 22.275780808258553], [70.69890222343422, 22.275885216650074], [70.69900073517981, 22.275981099934356], [70.69910887059535, 22.276067534685065], [70.69922558827842, 22.276143688469357], [70.69934976416674, 22.27620882786543], [70.69948020236382, 22.27626232552647], [70.69961564665681, 22.276303666223093], [70.69975479261521, 22.27633245180598], [70.69989630015431, 22.27634840504085], [70.70003880644236, 22.2763513722789], [70.73986500208744, 22.275355799633466]]]}}]}