{"type": "FeatureCollection", "features": [{"type": "Feature", "properties": {"risk_type": "flood", "risk_level": "medium"}, "geometry": {"type": "Polygon", "coordinates": [[[70.73923494612774, 22.28168285552602], [70.77827140455213, 22.289490378889408], [70.7789030174743, 22.289592859540694], [70.81890397153938, 22.294593321472455], [70.85890492696205, 22.2995937800154], [70.85926396808614, 22.299631175760414], [70.91926712003868, 22.304631935221245], [70.92007456878692, 22.304662033770036], [70.92088130032485, 22.30461833872063], [70.92167954409796, 22.304501270758664], [70.92246161130737, 22.304311957311135], [70.92321996900633, 22.304052221688668], [70.92394731269313, 22.303724565521474], [70.92463663669993, 22.303332144658288], [70.92528130169758, 22.30287873876067], [70.92587509866543, 22.30236871488611], [70.92641230870832, 22.301806985411254], [70.9268877581446, 22.301198960701125], [70.92729686833341, 22.30055049698123], [70.92763569976204, 22.299867839915223], [70.92790098996844, 22.299157564432544], [70.92809018493487, 22.29842651138644], [70.92820146365088, 22.29768172165311], [70.92823375561058, 22.29693036830751], [70.92818675107732, 22.29617968752956], [70.92806090401852, 22.29543690890671], [70.9278574276841, 22.294709185804408], [70.9275782828734, 22.294003526475294], [70.92722615900502, 22.29332672657044], [70.92680444817394, 22.292685303702495], [70.92631721244744, 22.292085434690666], [70.9257691447158, 22.291532896091173], [70.92516552347642, 22.29103300858549], [70.92451216198727, 22.29059058576104], [70.92381535227993, 22.290209887776886], [70.92308180457147, 22.289894580359658], [70.92231858265829, 22.28964769952371], [70.92153303591371, 22.28947162235454], [70.92073272854286, 22.289368044135774], [70.86091582185973, 22.284383830482504], [70.82109691830453, 22.279406782826506], [70.78141471139215, 22.274446886269224], [70.74173022885164, 22.266510309652766], [70.74075944951925, 22.26637181794056], [70.73977786029016, 22.266341932698207], [70.69978006603688, 22.267342222776392], [70.69897470072361, 22.267399162226894], [70.69817920906794, 22.267529297738132], [70.69740125082123, 22.26773137604408], [70.69664831694774, 22.268003451150506], [70.69592765752857, 22.26834290307096], [70.69524621198114, 22.2687464630493], [70.69461054226431, 22.269210245026038], [70.69402676971143, 22.269729783046266], [70.69350051609824, 22.270300074249278], [70.69303684951264, 22.270915627026785], [70.69264023554712, 22.271570513886786], [70.69231449428383, 22.272258428514807], [70.69206276348706, 22.272972746483955], [70.69188746835788, 22.273706589029956], [70.69179029814391, 22.2744528892779], [70.6917721898302, 22.275204460283536], [70.69183331907006, 22.275954064234597], [70.69197309844499, 22.276694482146137], [70.69219018307236, 22.277418583379], [70.69248248350851, 22.27811939431215], [70.69284718582509, 22.278790165507445], [70.69328077866709, 22.279424436719847], [70.69377908703329, 22.28001609912662], [70.6943373124557, 22.28055945417574], [70.6949500791915, 22.281049268485994], [70.69561148598392, 22.281480824269448], [70.69631516289374, 22.281849964789703], [70.69705433265403, 22.282153134417356], [70.69782187595726, 22.28238741289584], [70.69861040004486, 22.28255054348697], [70.69941230993808, 22.282640954724084], [70.7002198816226, 22.282657775562694], [70.73923494612774, 22.28168285552602]]]}}, {"type": "Feature", "properties": {"risk_type": "flood", "risk_level": "high"}, "geometry": {"type": "Polygon", "coordinates": [[[70.73968499714172, 22.277163531411844], [70.7792882561077, 22.28508427998323], [70.77954832450159, 22.285126475337567], [70.81954871725466, 22.290126665523985], [70.8595491105786, 22.2951268543165], [70.85969694654142, 22.29514225136718], [70.91969824423953, 22.300142564062064], [70.92003071259866, 22.30015495558945], [70.92036288533599, 22.300136962487624], [70.92069156322805, 22.30008875801938], [70.92101358071093, 22.30001080641983], [70.92132583637482, 22.299903858425576], [70.92162532284009, 22.299768944043933], [70.92190915572718, 22.29960736263187], [70.92217460144104, 22.299420670380286], [70.92241910350204, 22.299210665324185], [70.92264030716974, 22.298979370023318], [70.92283608212253, 22.298729012080102], [70.9230045429739, 22.29846200268268], [70.92314406742865, 22.29818091337984], [70.92325331190352, 22.297888451311653], [70.92333122446227, 22.297587433134577], [70.92337705494073, 22.297280757892104], [70.92339036216451, 22.296971379092618], [70.92337101819015, 22.296662276263216], [70.92331920952907, 22.296356426253702], [70.92323543534305, 22.296056774567127], [70.92312050262865, 22.29576620699295], [70.92297551843758, 22.295487521816096], [70.92280187920792, 22.295223402869453], [70.92260125730957, 22.29497639368933], [70.92237558493333, 22.294748873022638], [70.92212703547945, 22.29454303192155], [70.92185800262446, 22.2943608526462], [70.92157107726851, 22.29420408957836], [70.92126902258481, 22.294074252329775], [70.92095474741161, 22.2939725912077], [70.92063127824295, 22.293900085177484], [70.92030173008746, 22.293857432437914], [70.86037712389654, 22.288863933300707], [70.82045169534419, 22.28387338490846], [70.78058255527775, 22.27888989933139], [70.74071247795563, 22.270916016214002], [70.74031273355118, 22.270858986485138], [70.73990853693235, 22.27084667837588], [70.6999094452956, 22.271846797814785], [70.69957781344296, 22.271870242541613], [70.69925024738687, 22.271923827837842], [70.69892990155245, 22.272007037649526], [70.69861986084186, 22.272119070642795], [70.69832311093288, 22.27225884792037], [70.69804250953217, 22.27242502341027], [70.69778075886016, 22.27261599682698], [70.69754037963185, 22.27282992908013], [70.69732368678436, 22.27306475998261], [70.69713276718458, 22.273318228087525], [70.69696945953167, 22.27358789246322], [70.69683533664782, 22.27387115619674], [70.69673169032815, 22.274165291399623], [70.69665951889532, 22.274467465475208], [70.69661951757939, 22.27477476839485], [70.69661207181547, 22.27508424072019], [70.69663725352403, 22.275392902102084], [70.6966948204101, 22.275697779981456], [70.69678421828822, 22.27599593821594], [70.69690458641139, 22.276284505356614], [70.69705476575258, 22.27656070230248], [70.69723331015989, 22.27682186906632], [70.69743850027757, 22.277065490394126], [70.69766836009973, 22.277289219991236], [70.69792067599685, 22.277490903121855], [70.69819301803261, 22.277668597364073], [70.69848276336523, 22.277820591320424], [70.69878712150852, 22.277945421103578], [70.69910316120868, 22.278041884438323], [70.69942783867863, 22.27810905224388], [70.69975802691705, 22.27814627758469], [70.70009054583005, 22.27815320190361], [70.73968499714172, 22.277163531411844]]]}}, {"type": "Feature", "properties": {"risk_type": "flood", "risk_level": "critical"}, "geometry": {"type": "Polygon", "coordinates": [[[70.79551707988722, 22.28306532046514], [70.79551183690964, 22.2828353956332], [70.79548240355477, 22.282607056224983], [70.79542906340224, 22.28238250127874], [70.79535233026306, 22.282163893375], [70.79525294322706, 22.281953337809945], [70.79513185954077, 22.281752862320918], [70.79499024538501, 22.281564397559347], [70.79482946464091, 22.281389758498857], [70.79465106575269, 22.281230626957854], [70.79445676681388, 22.281088535404674], [70.79424843902052, 22.280964852201162], [70.79402808865089, 22.280860768426866], [70.79379783774525, 22.28077728641043], [70.79355990367141, 22.280715210078778], [70.7933165777732, 22.28067513721678], [70.79307020330707, 22.28065745371196], [70.79282315287924, 22.280662329839572], [70.79257780560069, 22.28068971862377], [70.79233652417952, 22.28073935629064], [70.7921016321715, 22.280810764808674], [70.79187539160735, 22.280903256492216], [70.79165998121229, 22.28101594062361], [70.79145747542746, 22.2811477320302], [70.79126982443483, 22.281297361533742], [70.79109883537828, 22.281463388171517], [70.79094615496112, 22.281644213071647], [70.79081325358818, 22.281838094848986], [70.79070141120452, 22.282043166373363], [70.79061170496772, 22.282257452748897], [70.79054499887212, 22.282478890331213], [70.79050193542525, 22.282705346599485], [70.79048292945666, 22.28293464069212], [70.79048816411874, 22.28316456440824], [70.7905175891186, 22.283392903472862], [70.79057092119768, 22.28361745886092], [70.79064764685523, 22.28383606797492], [70.79074702728893, 22.284046625472172], [70.79086810550596, 22.284247103541066], [70.79100971553572, 22.284435571431043], [70.79117049365559, 22.284610214048254], [70.79134889152223, 22.284769349437603], [70.79154319108139, 22.28491144498287], [70.79175152111314, 22.285035132168794], [70.79197187525317, 22.28513921976279], [70.7922021313164, 22.285222705289424], [70.79244007173675, 22.285284784686873], [70.79268340492652, 22.285324860052448], [70.79292978734908, 22.285342545402425], [70.7931768460924, 22.285337670390632], [70.79342220172595, 22.285310281950032], [70.79366349122057, 22.285260643841337], [70.79389839071023, 22.285189234113048], [70.79412463787669, 22.285096740497313], [70.79434005374098, 22.28498405378605], [70.79454256365183, 22.28485225925105], [70.79473021726866, 22.284702626190796], [70.79490120734681, 22.28453659570467], [70.79505388714364, 22.28435576681245], [70.7951867862782, 22.284161881052693], [70.79529862489143, 22.28395680570862], [70.79538832597065, 22.283742515822887], [70.79545502571973, 22.283521075174782], [70.79549808187501, 22.28329461640293], [70.79551707988722, 22.28306532046514]]]}}, {"type": "Feature", "properties": {"risk_type": "pollution", "risk_level": "medium"}, "geometry": {"type": "Polygon", "coordinates": [[[70.84313220362193, 22.262285693874343], [70.8431086428474, 22.261268670985835], [70.84297809950881, 22.260258694978106], [70.84274183315934, 22.259265492564477], [70.84240212144199, 22.25829862869869], [70.84196223806757, 22.25736741446421], [70.8414264212063, 22.256480817416644], [70.8407998326009, 22.255647375242237], [70.84008850779726, 22.25487511356335], [70.83929929797455, 22.254171468681132], [70.83843980393658, 22.25354321599834], [70.83751830290106, 22.252996404810027], [70.8365436687925, 22.25253630008862], [70.83552528680579, 22.252167331822257], [70.83447296306258, 22.251893052392713], [70.83339683022874, 22.251716102401822], [70.83230724999993, 22.251638185273986], [70.83121471339152, 22.2516600508782], [70.83012973979037, 22.251781488326163], [70.82906277573706, 22.252001328015243], [70.82802409441021, 22.252317452895923], [70.82702369677723, 22.252726818855386], [70.82607121536032, 22.253225484020803], [70.82517582154107, 22.253808646700854], [70.82434613729423, 22.254470691600755], [70.82359015219767, 22.25520524386679], [70.82291514651685, 22.25600523044131], [70.82232762110273, 22.256862948138497], [70.82183323477837, 22.257770137787226], [70.82143674981708, 22.258718063728328], [70.8211419860385, 22.259697597902594], [70.82095178396574, 22.260699307721016], [70.82086797740115, 22.26171354687268], [70.82089137568683, 22.262730548196977], [70.82102175582428, 22.26374051772683], [70.8212578645321, 22.264733728997847], [70.82159743022532, 22.26570061671589], [70.82203718480481, 22.26663186888087], [70.82257289504983, 22.267518516479544], [70.82319940331487, 22.268352019883], [70.82391067714148, 22.269124351115885], [70.82469986730949, 22.269828071204138], [70.82555937377045, 22.27045640185487], [70.82648091882919, 22.27100329077675], [70.82745562686947, 22.27146347001012], [70.8284741098552, 22.271832506703372], [70.82952655778341, 22.272106845845123], [70.83060283321588, 22.272283844538844], [70.83169256897695, 22.27236179748849], [70.83278526807422, 22.272339953448473], [70.8338704048765, 22.272218522478383], [70.8349375265715, 22.27199867393193], [70.83597635392248, 22.271682525198987], [70.83697688035038, 22.271273121309022], [70.83792946838355, 22.270774405592494], [70.83882494254314, 22.270191181683387], [70.83965467776703, 22.269529067229485], [70.84041068251824, 22.26879443975741], [70.84108567577609, 22.267994375214958], [70.84167315716697, 22.267136579784196], [70.84216746955961, 22.266229315623523], [70.84256385352188, 22.26528132125553], [70.84285849311546, 22.26430172736906], [70.8430485525896, 22.263299968847818], [70.84313220362193, 22.262285693874343]]]}}]}