{"type": "FeatureCollection", "features": [{"type": "Feature", "properties": {"name": "Kathiyawar Nitashrit Balashram", "category": "school"}, "geometry": {"type": "Point", "coordinates": [70.8005309, 22.2885027]}}, {"type": "Feature", "properties": {"name": "Choudhri school", "category": "school"}, "geometry": {"type": "Point", "coordinates": [70.7988841, 22.302546]}}, {"type": "Feature", "properties": {"name": "Parimal School", "category": "school"}, "geometry": {"type": "Point", "coordinates": [70.7686847, 22.2832194]}}, {"type": "Feature", "properties": {"name": "Nirmala Convent School", "category": "school"}, "geometry": {"type": "Point", "coordinates": [70.7767159, 22.2971158]}}, {"type": "Feature", "properties": {"name": "Kalyan High School", "category": "school"}, "geometry": {"type": "Point", "coordinates": [70.7765869, 22.3002331]}}, {"type": "Feature", "properties": {"name": "Christ College Rajkot", "category": "college"}, "geometry": {"type": "Point", "coordinates": [70.72527434999999, 22.29137435]}}, {"type": "Feature", "properties": {"name": "St Paul's", "category": "school"}, "geometry": {"type": "Point", "coordinates": [70.72418048, 22.291398219999998]}}, {"type": "Feature", "properties": {"name": "Saurashtra University", "category": "university"}, "geometry": {"type": "Point", "coordinates": [70.74325518260869, 22.28988087826087]}}, {"type": "Feature", "properties": {"name": "RK University", "category": "university"}, "geometry": {"type": "Point", "coordinates": [70.9025698875, 22.2401039125]}}, {"type": "Feature", "properties": {"name": "Government Engineering College, Rajkot", "category": "college"}, "geometry": {"type": "Point", "coordinates": [70.74381867142857, 22.24705457142857]}}, {"type": "Feature", "properties": {"name": "Marwadi University", "category": "university"}, "geometry": {"type": "Point", "coordinates": [70.79548713333334, 22.367942985714286]}}, {"type": "Feature", "properties": {"name": "All India Institute of Medical Sciences, Rajkot", "category": "university"}, "geometry": {"type": "Point", "coordinates": [70.7443510122449, 22.374659702040816]}}]}