{"type": "FeatureCollection", "features": [{"type": "Feature", "properties": {"id": "SITE_A", "name": "Astron Chowk \u2014 Kalawad Rd", "preset": true}, "geometry": {"type": "Point", "coordinates": [70.7655, 22.2903]}}, {"type": "Feature", "properties": {"id": "SITE_B", "name": "Mavdi Chowk", "preset": true}, "geometry": {"type": "Point", "coordinates": [70.7709, 22.2741]}}, {"type": "Feature", "properties": {"id": "SITE_C", "name": "Gondal Road Corridor", "preset": true}, "geometry": {"type": "Point", "coordinates": [70.806, 22.2635]}}, {"type": "Feature", "properties": {"id": "SITE_D", "name": "150 Feet Ring Road \u2014 West", "preset": true}, "geometry": {"type": "Point", "coordinates": [70.7385, 22.2985]}}, {"type": "Feature", "properties": {"id": "SITE_E", "name": "University Road", "preset": true}, "geometry": {"type": "Point", "coordinates": [70.743, 22.287]}}, {"type": "Feature", "properties": {"id": "SITE_F", "name": "Old City Core", "preset": true}, "geometry": {"type": "Point", "coordinates": [70.793, 22.296]}}, {"type": "Feature", "properties": {"id": "SITE_G", "name": "Aji Industrial Fringe", "preset": true}, "geometry": {"type": "Point", "coordinates": [70.8228, 22.2715]}}, {"type": "Feature", "properties": {"id": "SITE_H", "name": "Greenland Chowkdi \u2014 North", "preset": true}, "geometry": {"type": "Point", "coordinates": [70.769, 22.331]}}]}